[{"OBJECT_NAME":"STARLINK-4201","OBJECT_ID":"2022-062AC","EPOCH":"2026-03-09T04:00:17.746848","MEAN_MOTION":15.08837656,"ECCENTRICITY":0.00015063,"INCLINATION":53.2195,"RA_OF_ASC_NODE":26.5158,"ARG_OF_PERICENTER":67.3477,"MEAN_ANOMALY":292.7674,"EPHEMERIS_TYPE":0,"CLASSIFICATION_TYPE":"U","NORAD_CAT_ID":52856,"ELEMENT_SET_NO":999,"REV_AT_EPOCH":20584,"BSTAR":-1.688558e-5,"MEAN_MOTION_DOT":-5.57e-6,"MEAN_MOTION_DDOT":0},{"OBJECT_NAME":"NANOFF B","OBJECT_ID":"2023-185S","EPOCH":"2026-03-09T23:34:31.291104","MEAN_MOTION":15.11549361,"ECCENTRICITY":0.00109129,"INCLINATION":97.5361,"RA_OF_ASC_NODE":137.8575,"ARG_OF_PERICENTER":288.4201,"MEAN_ANOMALY":71.5842,"EPHEMERIS_TYPE":0,"CLASSIFICATION_TYPE":"U","NORAD_CAT_ID":58755,"ELEMENT_SET_NO":999,"REV_AT_EPOCH":11888,"BSTAR":0.00028764283,"MEAN_MOTION_DOT":4.819e-5,"MEAN_MOTION_DDOT":0}]
